[{"OBJECT_NAME":"SAUDISAT 5A","OBJECT_ID":"2018-102A","EPOCH":"2026-03-09T23:40:00.596928","MEAN_MOTION":15.26941021,"ECCENTRICITY":0.00113651,"INCLINATION":97.3185,"RA_OF_ASC_NODE":132.4981,"ARG_OF_PERICENTER":121.7113,"MEAN_ANOMALY":238.5235,"EPHEMERIS_TYPE":0,"CLASSIFICATION_TYPE":"U","NORAD_CAT_ID":43831,"ELEMENT_SET_NO":999,"REV_AT_EPOCH":40053,"BSTAR":0.00030305233,"MEAN_MOTION_DOT":7.96e-5,"MEAN_MOTION_DDOT":0},{"OBJECT_NAME":"STARLINK-35389","OBJECT_ID":"2025-259N","EPOCH":"2026-03-09T22:40:12.194976","MEAN_MOTION":15.27589011,"ECCENTRICITY":0.00012827,"INCLINATION":43.0018,"RA_OF_ASC_NODE":272.6129,"ARG_OF_PERICENTER":244.3202,"MEAN_ANOMALY":115.7517,"EPHEMERIS_TYPE":0,"CLASSIFICATION_TYPE":"U","NORAD_CAT_ID":66434,"ELEMENT_SET_NO":999,"REV_AT_EPOCH":1953,"BSTAR":0.00091652927,"MEAN_MOTION_DOT":0.00025051,"MEAN_MOTION_DDOT":0}]
